SAUDISAT 1C (SO-50)     
1 27607U 02058C   26191.08192997  .00000486  00000+0  75179-4 0  9991
2 27607  64.5517  58.1476 0074678 258.2262 101.0460 14.83092603267858
SAUDISAT 2              
1 28371U 04025F   26190.49027406  .00000155  00000+0  45779-4 0  9998
2 28371  98.5516 191.0492 0023770 226.2459 133.6771 14.56696323168998
SAUDISAT 3              
1 31118U 07012B   26190.29131985  .00000171  00000+0  35846-4 0  9998
2 31118  98.1465 140.7077 0015207 152.5056 207.6958 14.71438293 30994
PISAT                   
1 41784U 16059B   26190.48566045  .00000626  00000+0  11402-3 0  9995
2 41784  97.8187 189.9810 0030168 132.2855 228.0916 14.69023153523019
FLYING LAPTOP           
1 42831U 17042G   26191.31458238  .00002206  00000+0  17530-3 0  9993
2 42831  97.4787 345.9737 0019865  47.9662 312.3249 15.01291877489920
SALSAT                  
1 46495U 20068K   26190.25177099  .00005482  00000+0  19084-3 0  9995
2 46495  97.8858 194.6644 0008593 215.0810 144.9864 15.30117525318739
